start=new Date('2023-05-16T00:00:00.000Z').valueOf();
sats=[{"SITE":"AFWTR","GP_ID":"231928631","TIME_SYSTEM":"UTC","TLE_LINE2":"2 53994  53.2155 152.9570 0001098  79.9251 280.1865 15.08842458 34139","EPHEMERIS_TYPE":"0","REV_AT_EPOCH":"3413","SEMIMAJOR_AXIS":"6917.873","MEAN_MOTION_DOT":"0.00000814","RCS_SIZE":"LARGE","OBJECT_ID":"2022-125AG","OBJECT_NAME":"STARLINK-5125","MEAN_ANOMALY":"280.1865","EPOCH":"2023-05-15T18:41:16.023552","NORAD_CAT_ID":"53994","CENTER_NAME":"EARTH","COUNTRY_CODE":"US","BSTAR":"0.00006921400000","FILE":"3908892","CLASSIFICATION_TYPE":"U","PERIOD":"95.437","MEAN_MOTION":"15.08842458","PERIAPSIS":"538.978","OBJECT_TYPE":"PAYLOAD","ECCENTRICITY":"0.00010980","RA_OF_ASC_NODE":"152.9570","INCLINATION":"53.2155","ARG_OF_PERICENTER":"79.9251","APOAPSIS":"540.497","MEAN_ELEMENT_THEORY":"SGP4","ELEMENT_SET_NO":"999","LAUNCH_DATE":"2022-10-05","DECAY_DATE":null,"REF_FRAME":"TEME","MEAN_MOTION_DDOT":"0.0000000000000","TLE_LINE1":"1 53994U 22125AG  23135.77865768  .00000814  00000-0  69214-4 0  9999"},{"COUNTRY_CODE":"US","BSTAR":"0.00004780400000","FILE":"3908892","NORAD_CAT_ID":"53995","CENTER_NAME":"EARTH","OBJECT_TYPE":"PAYLOAD","RA_OF_ASC_NODE":"153.0031","ECCENTRICITY":"0.00012570","INCLINATION":"53.2164","ARG_OF_PERICENTER":"88.1230","CLASSIFICATION_TYPE":"U","PERIOD":"95.437","MEAN_MOTION":"15.08841137","PERIAPSIS":"538.872","LAUNCH_DATE":"2022-10-05","DECAY_DATE":null,"APOAPSIS":"540.611","MEAN_ELEMENT_THEORY":"SGP4","ELEMENT_SET_NO":"999","TLE_LINE1":"1 53995U 22125AH  23135.78602910  .00000473  00000-0  47804-4 0  9991","MEAN_MOTION_DDOT":"0.0000000000000","REF_FRAME":"TEME","GP_ID":"231929382","SITE":"AFWTR","TIME_SYSTEM":"UTC","TLE_LINE2":"2 53995  53.2164 153.0031 0001257  88.1230 271.9906 15.08841137 34126","EPHEMERIS_TYPE":"0","SEMIMAJOR_AXIS":"6917.877","MEAN_MOTION_DOT":"0.00000473","RCS_SIZE":"LARGE","OBJECT_ID":"2022-125AH","REV_AT_EPOCH":"3412","EPOCH":"2023-05-15T18:51:52.914240","OBJECT_NAME":"STARLINK-5097","MEAN_ANOMALY":"271.9906"},{"SITE":"AFWTR","GP_ID":"231929126","TIME_SYSTEM":"UTC","TLE_LINE2":"2 53996  53.2159 152.9349 0001336  85.5446 274.5699 15.08840904 34139","EPHEMERIS_TYPE":"0","REV_AT_EPOCH":"3413","SEMIMAJOR_AXIS":"6917.878","RCS_SIZE":"LARGE","MEAN_MOTION_DOT":"0.00000795","OBJECT_ID":"2022-125AJ","OBJECT_NAME":"STARLINK-5131","MEAN_ANOMALY":"274.5699","EPOCH":"2023-05-15T18:35:57.852096","NORAD_CAT_ID":"53996","CENTER_NAME":"EARTH","COUNTRY_CODE":"US","BSTAR":"0.00006800800000","FILE":"3908892","CLASSIFICATION_TYPE":"U","PERIOD":"95.437","MEAN_MOTION":"15.08840904","PERIAPSIS":"538.818","OBJECT_TYPE":"PAYLOAD","RA_OF_ASC_NODE":"152.9349","INCLINATION":"53.2159","ECCENTRICITY":"0.00013360","ARG_OF_PERICENTER":"85.5446","APOAPSIS":"540.667","MEAN_ELEMENT_THEORY":"SGP4","ELEMENT_SET_NO":"999","DECAY_DATE":null,"LAUNCH_DATE":"2022-10-05","REF_FRAME":"TEME","MEAN_MOTION_DDOT":"0.0000000000000","TLE_LINE1":"1 53996U 22125AJ  23135.77497514  .00000795  00000-0  68008-4 0  9999"},{"GP_ID":"231899884","SITE":"AFWTR","TIME_SYSTEM":"UTC","TLE_LINE2":"2 53997  53.2155 143.4688 0001208  87.6508 272.4622 15.08836478 34333","EPHEMERIS_TYPE":"0","REV_AT_EPOCH":"3433","SEMIMAJOR_AXIS":"6917.891","RCS_SIZE":"LARGE","MEAN_MOTION_DOT":"-0.00000288","OBJECT_ID":"2022-125AK","OBJECT_NAME":"STARLINK-5130","MEAN_ANOMALY":"272.4622","EPOCH":"2023-05-15T17:49:39.870048","NORAD_CAT_ID":"53997","CENTER_NAME":"EARTH","COUNTRY_CODE":"US","BSTAR":"0.00000001827300","FILE":"3908744","CLASSIFICATION_TYPE":"U","PERIOD":"95.438","MEAN_MOTION":"15.08836478","PERIAPSIS":"538.920","OBJECT_TYPE":"PAYLOAD","RA_OF_ASC_NODE":"143.4688","INCLINATION":"53.2155","ECCENTRICITY":"0.00012080","ARG_OF_PERICENTER":"87.6508","APOAPSIS":"540.592","MEAN_ELEMENT_THEORY":"SGP4","ELEMENT_SET_NO":"999","DECAY_DATE":null,"LAUNCH_DATE":"2022-10-05","REF_FRAME":"TEME","MEAN_MOTION_DDOT":"0.0000000000000","TLE_LINE1":"1 53997U 22125AK  23135.74282257 -.00000288  00000-0  18273-7 0  9993"},{"CENTER_NAME":"EARTH","NORAD_CAT_ID":"53998","FILE":"3908892","BSTAR":"0.00003040700000","COUNTRY_CODE":"US","PERIAPSIS":"538.837","MEAN_MOTION":"15.08837227","PERIOD":"95.438","CLASSIFICATION_TYPE":"U","ARG_OF_PERICENTER":"83.0647","ECCENTRICITY":"0.00013250","RA_OF_ASC_NODE":"152.8978","INCLINATION":"53.2158","OBJECT_TYPE":"PAYLOAD","ELEMENT_SET_NO":"999","MEAN_ELEMENT_THEORY":"SGP4","APOAPSIS":"540.670","LAUNCH_DATE":"2022-10-05","DECAY_DATE":null,"REF_FRAME":"TEME","TLE_LINE1":"1 53998U 22125AL  23135.76856646  .00000196  00000-0  30407-4 0  9992","MEAN_MOTION_DDOT":"0.0000000000000","TLE_LINE2":"2 53998  53.2158 152.8978 0001325  83.0647 277.0496 15.08837227 34138","TIME_SYSTEM":"UTC","GP_ID":"231928131","SITE":"AFWTR","EPHEMERIS_TYPE":"0","REV_AT_EPOCH":"3413","OBJECT_ID":"2022-125AL","MEAN_MOTION_DOT":"0.00000196","RCS_SIZE":"LARGE","SEMIMAJOR_AXIS":"6917.889","MEAN_ANOMALY":"277.0496","OBJECT_NAME":"STARLINK-5128","EPOCH":"2023-05-15T18:26:44.142144"},{"EPHEMERIS_TYPE":"0","GP_ID":"231928882","SITE":"AFWTR","TIME_SYSTEM":"UTC","TLE_LINE2":"2 53999  53.2155 152.9796 0001171  87.8027 272.3099 15.08841035 34137","OBJECT_NAME":"STARLINK-5079","MEAN_ANOMALY":"272.3099","EPOCH":"2023-05-15T18:46:34.486176","REV_AT_EPOCH":"3413","SEMIMAJOR_AXIS":"6917.877","RCS_SIZE":"LARGE","MEAN_MOTION_DOT":"0.00000521","OBJECT_ID":"2022-125AM","CLASSIFICATION_TYPE":"U","PERIOD":"95.437","MEAN_MOTION":"15.08841035","PERIAPSIS":"538.932","OBJECT_TYPE":"PAYLOAD","ECCENTRICITY":"0.00011710","RA_OF_ASC_NODE":"152.9796","INCLINATION":"53.2155","ARG_OF_PERICENTER":"87.8027","NORAD_CAT_ID":"53999","CENTER_NAME":"EARTH","COUNTRY_CODE":"US","BSTAR":"0.00005079000000","FILE":"3908892","REF_FRAME":"TEME","TLE_LINE1":"1 53999U 22125AM  23135.78234359  .00000521  00000-0  50790-4 0  9995","MEAN_MOTION_DDOT":"0.0000000000000","APOAPSIS":"540.552","MEAN_ELEMENT_THEORY":"SGP4","ELEMENT_SET_NO":"999","DECAY_DATE":null,"LAUNCH_DATE":"2022-10-05"},{"TLE_LINE2":"2 54000  53.2147 143.4480 0001096  92.2591 267.8526 15.08837473 34268","TIME_SYSTEM":"UTC","SITE":"AFWTR","GP_ID":"231929627","EPHEMERIS_TYPE":"0","REV_AT_EPOCH":"3426","OBJECT_ID":"2022-125AN","MEAN_MOTION_DOT":"0.00001903","RCS_SIZE":"LARGE","SEMIMAJOR_AXIS":"6917.888","MEAN_ANOMALY":"267.8526","OBJECT_NAME":"STARLINK-5088","EPOCH":"2023-05-15T17:44:21.593184","CENTER_NAME":"EARTH","NORAD_CAT_ID":"54000","FILE":"3908892","BSTAR":"0.00013764000000","COUNTRY_CODE":"US","PERIAPSIS":"538.995","MEAN_MOTION":"15.08837473","PERIOD":"95.438","CLASSIFICATION_TYPE":"U","ARG_OF_PERICENTER":"92.2591","ECCENTRICITY":"0.00010960","RA_OF_ASC_NODE":"143.4480","INCLINATION":"53.2147","OBJECT_TYPE":"PAYLOAD","ELEMENT_SET_NO":"999","MEAN_ELEMENT_THEORY":"SGP4","APOAPSIS":"540.511","DECAY_DATE":null,"LAUNCH_DATE":"2022-10-05","REF_FRAME":"TEME","MEAN_MOTION_DDOT":"0.0000000000000","TLE_LINE1":"1 54000U 22125AN  23135.73913881  .00001903  00000-0  13764-3 0  9992"},{"OBJECT_TYPE":"PAYLOAD","INCLINATION":"53.2163","RA_OF_ASC_NODE":"152.8916","ECCENTRICITY":"0.00012150","ARG_OF_PERICENTER":"85.5439","CLASSIFICATION_TYPE":"U","PERIOD":"95.437","MEAN_MOTION":"15.08842947","PERIAPSIS":"538.896","COUNTRY_CODE":"US","BSTAR":"0.00008850000000","FILE":"3908892","NORAD_CAT_ID":"54001","CENTER_NAME":"EARTH","TLE_LINE1":"1 54001U 22125AP  23135.76760280  .00001121  00000-0  88500-4 0  9992","MEAN_MOTION_DDOT":"0.0000000000000","REF_FRAME":"TEME","LAUNCH_DATE":"2022-10-05","DECAY_DATE":null,"APOAPSIS":"540.577","MEAN_ELEMENT_THEORY":"SGP4","ELEMENT_SET_NO":"999","EPHEMERIS_TYPE":"0","SITE":"AFWTR","GP_ID":"231928382","TIME_SYSTEM":"UTC","TLE_LINE2":"2 54001  53.2163 152.8916 0001215  85.5439 274.5692 15.08842947 34131","EPOCH":"2023-05-15T18:25:20.881920","OBJECT_NAME":"STARLINK-5105","MEAN_ANOMALY":"274.5692","SEMIMAJOR_AXIS":"6917.871","RCS_SIZE":"LARGE","MEAN_MOTION_DOT":"0.00001121","OBJECT_ID":"2022-125AP","REV_AT_EPOCH":"3413"},{"OBJECT_TYPE":"PAYLOAD","ARG_OF_PERICENTER":"89.3101","INCLINATION":"53.2153","RA_OF_ASC_NODE":"144.3832","ECCENTRICITY":"0.00011400","PERIOD":"95.438","CLASSIFICATION_TYPE":"U","PERIAPSIS":"538.956","MEAN_MOTION":"15.08840159","BSTAR":"0.00001362900000","COUNTRY_CODE":"US","FILE":"3908681","CENTER_NAME":"EARTH","NORAD_CAT_ID":"54002","MEAN_MOTION_DDOT":"0.0000000000000","TLE_LINE1":"1 54002U 22125AQ  23135.42996038 -.00000071  00000-0  13629-4 0  9992","REF_FRAME":"TEME","LAUNCH_DATE":"2022-10-05","DECAY_DATE":null,"MEAN_ELEMENT_THEORY":"SGP4","APOAPSIS":"540.534","ELEMENT_SET_NO":"999","EPHEMERIS_TYPE":"0","SITE":"AFWTR","GP_ID":"231897571","TLE_LINE2":"2 54002  53.2153 144.3832 0001140  89.3101 270.8021 15.08840159 34227","TIME_SYSTEM":"UTC","EPOCH":"2023-05-15T10:19:08.576832","OBJECT_NAME":"STARLINK-5109","MEAN_ANOMALY":"270.8021","RCS_SIZE":"LARGE","MEAN_MOTION_DOT":"-0.00000071","SEMIMAJOR_AXIS":"6917.880","OBJECT_ID":"2022-125AQ","REV_AT_EPOCH":"3422"},{"CLASSIFICATION_TYPE":"U","PERIOD":"95.438","MEAN_MOTION":"15.08838065","PERIAPSIS":"538.869","OBJECT_TYPE":"PAYLOAD","RA_OF_ASC_NODE":"152.9106","INCLINATION":"53.2162","ECCENTRICITY":"0.00012750","ARG_OF_PERICENTER":"89.4810","NORAD_CAT_ID":"54003","CENTER_NAME":"EARTH","COUNTRY_CODE":"US","BSTAR":"0.00004541300000","FILE":"3908892","REF_FRAME":"TEME","TLE_LINE1":"1 54003U 22125AR  23135.77129147  .00000435  00000-0  45413-4 0  9999","MEAN_MOTION_DDOT":"0.0000000000000","APOAPSIS":"540.633","MEAN_ELEMENT_THEORY":"SGP4","ELEMENT_SET_NO":"999","DECAY_DATE":null,"LAUNCH_DATE":"2022-10-05","EPHEMERIS_TYPE":"0","SITE":"AFWTR","GP_ID":"231929383","TIME_SYSTEM":"UTC","TLE_LINE2":"2 54003  53.2162 152.9106 0001275  89.4810 270.6329 15.08838065 34136","OBJECT_NAME":"STARLINK-5114","MEAN_ANOMALY":"270.6329","EPOCH":"2023-05-15T18:30:39.583008","REV_AT_EPOCH":"3413","SEMIMAJOR_AXIS":"6917.886","RCS_SIZE":"LARGE","MEAN_MOTION_DOT":"0.00000435","OBJECT_ID":"2022-125AR"}];
